{"type":"FeatureCollection","features":[{"type":"Feature","properties":{"region":"Донецкая народная Республика","regionCode":"RU-DON"},"geometry":{"type":"MultiPolygon","coordinates":[[[[37.8905,49.2187],[37.9355,49.1917],[37.8931,49.1752],[37.8927,49.1603],[37.9216,49.1457],[38.0394,49.1266],[38.0444,49.1509],[38.0821,49.1479],[38.0555,49.0586],[38.098,48.9919],[38.0531,48.985],[38.0534,48.9648],[38.0307,48.9741],[38.004,48.9459],[38.1331,48.926],[38.2252,48.935],[38.222,48.8397],[38.3121,48.8277],[38.3163,48.8054],[38.2786,48.8035],[38.2836,48.7736],[38.2628,48.7505],[38.3188,48.7356],[38.3258,48.7148],[38.3035,48.7126],[38.314,48.6843],[38.2881,48.6831],[38.2897,48.6651],[38.2391,48.6562],[38.2326,48.6404],[38.2641,48.637],[38.2761,48.542],[38.3185,48.5092],[38.299,48.4953],[38.3051,48.4751],[38.2896,48.4761],[38.3433,48.4383],[38.3754,48.4432],[38.3806,48.4291],[38.4335,48.4475],[38.4477,48.3788],[38.4941,48.3629],[38.4341,48.3402],[38.4273,48.2789],[38.5594,48.2744],[38.5864,48.2585],[38.5885,48.2284],[38.6117,48.2046],[38.6056,48.1715],[38.6953,48.1594],[38.6908,48.1459],[38.8199,48.1157],[38.8072,48.0887],[38.8194,48.0836],[38.7986,48.0742],[38.8174,48.0661],[38.8291,48.0776],[38.8131,48.0471],[38.8369,48.014],[39.0401,48.0069],[39.0391,47.956],[39.092,47.9409],[39.0654,47.8949],[39.0736,47.8694],[38.8795,47.8763],[38.8429,47.8653],[38.8264,47.8455],[38.8284,47.8153],[38.7896,47.8154],[38.7839,47.7884],[38.7966,47.7738],[38.7893,47.737],[38.7701,47.723],[38.7725,47.6856],[38.6656,47.6988],[38.6653,47.6695],[38.6286,47.6692],[38.6165,47.6442],[38.4566,47.6441],[38.4565,47.6174],[38.3503,47.617],[38.3508,47.5763],[38.3111,47.5762],[38.3066,47.5446],[38.2851,47.5439],[38.3028,47.3915],[38.287,47.3914],[38.2868,47.3735],[38.2512,47.3691],[38.2209,47.3269],[38.2208,47.3054],[38.3365,47.3061],[38.3226,47.2812],[38.3335,47.2692],[38.288,47.2563],[38.2883,47.2386],[38.2336,47.2306],[38.2303,47.1193],[38.1467,47.0549],[38.091,47.0242],[38.1352,47.0646],[38.1028,47.102],[38.0645,47.1126],[38.0318,47.0901],[37.9822,47.0976],[37.9791,47.0866],[37.8904,47.1111],[37.7083,47.0798],[37.6289,47.0947],[37.5835,47.0814],[37.5828,47.0887],[37.5738,47.0983],[37.5747,47.0857],[37.52,47.0714],[37.518,47.0621],[37.5246,47.0542],[37.5221,47.0503],[37.5037,47.0499],[37.5225,47.0519],[37.5151,47.0661],[37.4323,46.9788],[37.3361,46.8891],[37.309,46.8715],[37.2917,46.8681],[37.3286,46.8868],[37.3174,46.9125],[37.2378,46.95],[37.0624,46.8826],[37.021,46.9278],[37.14,46.9822],[37.0895,47.0075],[37.1249,47.039],[37.0985,47.0589],[37.0811,47.0472],[36.9843,47.0797],[37.0119,47.089],[36.9989,47.1292],[36.9824,47.1252],[36.9481,47.1597],[36.8887,47.1721],[36.8541,47.1999],[36.9634,47.2016],[36.9271,47.3195],[37.0274,47.3142],[37.0368,47.2992],[37.1235,47.3408],[37.107,47.3756],[37.1421,47.3798],[37.1618,47.3417],[37.2031,47.356],[37.1949,47.373],[37.2449,47.469],[37.1876,47.4682],[37.1955,47.4801],[37.1794,47.4843],[37.1572,47.4555],[37.0772,47.4924],[37.0234,47.5511],[37.0022,47.5387],[36.9443,47.5752],[36.8954,47.545],[36.8306,47.6235],[36.7466,47.6064],[36.7446,47.6221],[36.765,47.6339],[36.7252,47.6309],[36.718,47.6589],[36.7757,47.6652],[36.7915,47.6852],[36.7132,47.6782],[36.6721,47.7934],[36.5872,47.7854],[36.6052,47.851],[36.5848,47.8475],[36.5772,47.8797],[36.55,47.8773],[36.5426,47.9055],[36.6398,47.9199],[36.6284,47.9613],[36.586,47.9564],[36.5763,47.9982],[36.5899,48.0004],[36.5691,48.0112],[36.5904,48.0202],[36.5752,48.0399],[36.5809,48.0788],[36.6553,48.0993],[36.7185,48.0843],[36.7476,48.0621],[36.7428,48.0511],[36.8029,48.0519],[36.854,48.0323],[36.8576,48.0524],[36.8765,48.0511],[36.8955,48.0771],[36.873,48.1833],[36.9365,48.1941],[36.9119,48.309],[36.8171,48.3122],[36.8088,48.3476],[36.8269,48.3691],[36.8212,48.4063],[36.8511,48.4182],[36.83,48.4847],[36.8562,48.4871],[36.8502,48.5174],[36.9069,48.5225],[36.9013,48.5445],[36.8589,48.5689],[36.8101,48.5688],[36.8055,48.5966],[36.7466,48.5968],[36.711,48.6936],[36.7354,48.7038],[36.7092,48.767],[36.6885,48.7747],[36.7194,48.8051],[36.7899,48.8027],[36.7877,48.7807],[36.8204,48.7714],[36.8393,48.7733],[36.8545,48.8004],[36.9213,48.7975],[36.968,48.7934],[37.0324,48.7505],[37.0423,48.7672],[36.9946,48.7871],[37.0247,48.8173],[37.0778,48.8181],[37.0983,48.851],[37.1921,48.8151],[37.1957,48.8812],[37.2262,48.9081],[37.2655,48.9071],[37.2689,48.9229],[37.3276,48.9229],[37.3333,48.9415],[37.3111,48.9422],[37.3203,48.9574],[37.2939,48.9696],[37.3446,49.0036],[37.3723,48.994],[37.3754,49.026],[37.3908,49.0267],[37.3842,49.0487],[37.4956,49.0643],[37.5086,49.0796],[37.4879,49.1006],[37.5845,49.1246],[37.5431,49.1442],[37.5665,49.1468],[37.558,49.1649],[37.4992,49.1833],[37.5583,49.2263],[37.6206,49.2329],[37.7985,49.2026],[37.8421,49.2019],[37.8654,49.2364],[37.8905,49.2187]]],[[[37.6812,47.0768],[37.6841,47.0766],[37.6817,47.0758],[37.6751,47.079],[37.6812,47.0768]]]]}},{"type":"Feature","properties":{"region":"Запорожская область","regionCode":"RU-ZP"},"geometry":{"type":"MultiPolygon","coordinates":[[[[35.3138,48.1361],[35.4197,48.1008],[35.5149,48.0965],[35.5233,48.0756],[35.7046,48.1407],[35.7427,48.0964],[35.8067,48.1003],[35.8169,48.0658],[35.9729,48.0933],[35.9848,48.0851],[35.973,48.0599],[35.9878,48.0589],[35.9746,48.0439],[36.0523,48.059],[36.0657,48.0252],[36.0345,48.019],[36.063,48.0004],[36.07,47.9722],[36.0513,47.9592],[36.0731,47.9656],[36.0844,47.9303],[36.1099,47.9418],[36.12,47.9285],[36.1095,47.9247],[36.1294,47.8905],[36.1175,47.8655],[36.0876,47.862],[36.081,47.8835],[36.0545,47.8805],[36.0747,47.8492],[36.1953,47.86],[36.1975,47.832],[36.2669,47.8323],[36.2765,47.8154],[36.2975,47.8153],[36.3324,47.8206],[36.3247,47.8395],[36.4563,47.824],[36.6052,47.851],[36.5872,47.7854],[36.6721,47.7934],[36.7132,47.6782],[36.7915,47.6852],[36.7757,47.6652],[36.718,47.6589],[36.7252,47.6309],[36.765,47.6339],[36.7446,47.6221],[36.7466,47.6064],[36.8306,47.6235],[36.8954,47.545],[36.9443,47.5752],[37.0022,47.5387],[37.0234,47.5511],[37.0772,47.4924],[37.1572,47.4555],[37.1794,47.4843],[37.1955,47.4801],[37.1876,47.4682],[37.2449,47.469],[37.1949,47.373],[37.2031,47.356],[37.1618,47.3417],[37.1421,47.3798],[37.107,47.3756],[37.1235,47.3408],[37.0368,47.2992],[37.0274,47.3142],[36.9271,47.3195],[36.9634,47.2016],[36.8541,47.1999],[36.8887,47.1721],[36.9481,47.1597],[36.9824,47.1252],[36.9989,47.1292],[37.0119,47.089],[36.9843,47.0797],[37.0811,47.0472],[37.0985,47.0589],[37.1249,47.039],[37.0895,47.0075],[37.14,46.9822],[37.021,46.9278],[37.0624,46.8826],[36.9915,46.8654],[36.9125,46.8198],[36.8339,46.6993],[36.7975,46.6544],[36.7677,46.6325],[36.7491,46.6336],[36.7604,46.6571],[36.7784,46.647],[36.8296,46.7014],[36.8147,46.7326],[36.7349,46.7767],[36.6284,46.7804],[36.413,46.7251],[36.3255,46.6703],[36.3333,46.6883],[36.2984,46.6626],[36.3025,46.6506],[36.3201,46.6661],[36.2485,46.5706],[36.2194,46.5417],[36.1722,46.5035],[36.1122,46.4891],[36.1094,46.499],[36.1479,46.5082],[36.1555,46.538],[36.1634,46.5097],[36.2239,46.5492],[36.2669,46.5986],[36.295,46.6428],[36.2681,46.6476],[36.2828,46.6384],[36.2721,46.6148],[36.269,46.6346],[36.2605,46.6367],[36.266,46.6196],[36.2594,46.5953],[36.2514,46.6364],[36.1902,46.674],[36.1143,46.658],[36.0394,46.6701],[35.9319,46.6615],[35.8515,46.6371],[35.8537,46.6545],[35.8326,46.669],[35.8396,46.6281],[35.7255,46.5853],[35.5999,46.4891],[35.4529,46.4386],[35.2686,46.2503],[35.2891,46.3036],[35.356,46.3589],[35.3269,46.3524],[35.3174,46.3317],[35.3007,46.3526],[35.2629,46.3486],[35.2513,46.3956],[35.2673,46.4274],[35.1335,46.3428],[35.1038,46.302],[35.0716,46.2988],[35.0536,46.4819],[35.022,46.4794],[34.9477,46.5119],[34.8896,46.5059],[34.891,46.5656],[34.7571,46.5513],[34.7488,46.5836],[34.7226,46.5813],[34.7127,46.6196],[34.757,46.6268],[34.7461,46.6834],[34.634,46.688],[34.6261,46.7252],[34.7351,46.7479],[34.7503,46.7805],[34.7657,46.7808],[34.7578,46.8229],[34.8183,46.8287],[34.8048,46.8827],[34.7523,46.8797],[34.7364,46.9611],[34.6879,46.9563],[34.6833,46.9789],[34.6234,46.9727],[34.6195,46.9934],[34.5994,46.9919],[34.5909,47.0269],[34.5678,47.0242],[34.5524,47.1059],[34.5201,47.105],[34.4918,47.247],[34.5302,47.251],[34.5274,47.2677],[34.5177,47.2835],[34.4883,47.2804],[34.4799,47.3145],[34.5141,47.3183],[34.5131,47.3362],[34.4145,47.3231],[34.4199,47.3008],[34.4,47.2985],[34.4024,47.2877],[34.3301,47.2904],[34.305,47.2685],[34.2364,47.4416],[34.1394,47.4768],[34.3021,47.5192],[34.4698,47.5314],[34.5678,47.5613],[34.6541,47.5594],[34.8777,47.5148],[34.9399,47.5266],[34.9654,47.5501],[34.9275,47.5803],[34.9401,47.6032],[34.9067,47.674],[34.9382,47.6775],[34.9308,47.7118],[34.9561,47.7127],[34.9576,47.7698],[34.8939,47.7601],[34.8793,47.8207],[34.9031,47.831],[34.8974,47.8531],[34.8705,47.8517],[34.8635,47.8799],[34.8175,47.8647],[34.8027,47.9161],[34.8536,47.9217],[34.8496,47.9372],[34.8771,47.942],[34.88,47.9289],[34.9163,47.9342],[34.9055,47.9852],[34.8705,47.9831],[34.859,48.0152],[34.8475,48.0136],[34.8401,48.0506],[34.8751,48.0545],[34.8552,48.1331],[34.9169,48.1311],[34.9154,48.0907],[34.9905,48.0894],[35.1009,48.1306],[35.3138,48.1361]]],[[[36.8042,46.6815],[36.8,46.6776],[36.8038,46.7013],[36.8025,46.6837],[36.8042,46.6815]]],[[[36.7655,46.6659],[36.7645,46.6668],[36.7686,46.6731],[36.7685,46.6688],[36.7655,46.6659]]]]}},{"type":"Feature","properties":{"region":"Луганская народная Республика","regionCode":"RU-LUG"},"geometry":{"type":"MultiPolygon","coordinates":[[[[39.91,48.1797],[39.9031,48.1403],[39.8709,48.1168],[39.8693,48.0791],[39.8342,48.0671],[39.8837,48.0412],[39.7765,48.0395],[39.8157,48.0011],[39.8249,47.9554],[39.8068,47.9506],[39.7941,47.9192],[39.7955,47.8707],[39.7636,47.8712],[39.7636,47.8467],[39.7382,47.8279],[39.6254,47.8391],[39.5212,47.8258],[39.4777,47.8604],[39.4409,47.8549],[39.439,47.8393],[39.4123,47.8297],[39.3874,47.871],[39.3586,47.8726],[39.1099,47.8424],[39.0736,47.8694],[39.0654,47.8949],[39.092,47.9409],[39.0391,47.956],[39.0401,48.0069],[38.8369,48.014],[38.8131,48.0471],[38.8291,48.0776],[38.8174,48.0661],[38.7986,48.0742],[38.8194,48.0836],[38.8072,48.0887],[38.8199,48.1157],[38.6908,48.1459],[38.6953,48.1594],[38.6056,48.1715],[38.6117,48.2046],[38.5885,48.2284],[38.5864,48.2585],[38.5594,48.2744],[38.4273,48.2789],[38.4341,48.3402],[38.4941,48.3629],[38.4477,48.3788],[38.4335,48.4475],[38.3806,48.4291],[38.3754,48.4432],[38.3433,48.4383],[38.2896,48.4761],[38.3051,48.4751],[38.299,48.4953],[38.3185,48.5092],[38.2761,48.542],[38.2641,48.637],[38.2326,48.6404],[38.2391,48.6562],[38.2897,48.6651],[38.2881,48.6831],[38.314,48.6843],[38.3035,48.7126],[38.3258,48.7148],[38.3188,48.7356],[38.2628,48.7505],[38.2836,48.7736],[38.2786,48.8035],[38.3163,48.8054],[38.3121,48.8277],[38.222,48.8397],[38.2252,48.935],[38.1331,48.926],[38.004,48.9459],[38.0307,48.9741],[38.0534,48.9648],[38.0531,48.985],[38.098,48.9919],[38.0555,49.0586],[38.0821,49.1479],[38.0444,49.1509],[38.0394,49.1266],[37.9216,49.1457],[37.8927,49.1603],[37.8931,49.1752],[37.9355,49.1917],[37.8898,49.212],[37.8675,49.2464],[37.9111,49.2597],[37.8992,49.2696],[37.9121,49.2769],[37.958,49.2846],[37.9469,49.3033],[37.8834,49.3129],[37.8969,49.4031],[37.878,49.4178],[37.8767,49.4467],[37.8446,49.4459],[37.8426,49.508],[37.9274,49.5423],[37.8849,49.5491],[37.9014,49.5744],[37.9526,49.5692],[37.9349,49.5947],[37.9961,49.6279],[37.9866,49.6438],[38.0468,49.6576],[37.999,49.7008],[38.0167,49.7153],[37.9736,49.7082],[37.9506,49.7305],[37.9759,49.7677],[37.9983,49.7534],[38.0536,49.7837],[38.0092,49.8128],[38.0189,49.8373],[38.0936,49.8465],[38.0331,49.9001],[38.0457,49.9155],[38.1245,49.9427],[38.1266,49.9218],[38.2224,49.9788],[38.1859,50.0227],[38.1777,50.0796],[38.2559,50.0726],[38.3293,50.0858],[38.3506,50.0064],[38.4163,49.9816],[38.4341,50.0014],[38.4693,49.9954],[38.4651,49.983],[38.4887,49.9633],[38.5273,49.9586],[38.5826,49.9774],[38.6474,49.9559],[38.6801,49.9745],[38.6865,50.0079],[38.718,49.9835],[38.6858,49.9615],[38.694,49.9349],[38.7913,49.8786],[38.9016,49.8693],[38.9182,49.8592],[38.9068,49.8271],[38.9309,49.7969],[39.0268,49.8222],[39.0677,49.8155],[39.1792,49.8884],[39.2267,49.8398],[39.2278,49.8074],[39.2509,49.7766],[39.2853,49.7554],[39.3787,49.7385],[39.4436,49.76],[39.6105,49.7337],[39.5913,49.7183],[39.6579,49.6167],[39.7503,49.5974],[39.806,49.558],[39.8913,49.5583],[39.9346,49.5735],[39.9521,49.5971],[40.0648,49.5988],[40.1357,49.6165],[40.1696,49.5688],[40.039,49.5205],[40.0295,49.4536],[40.1142,49.3857],[40.2003,49.346],[40.186,49.2813],[40.2272,49.2605],[40.222,49.2509],[40.1367,49.2395],[40.0774,49.1869],[40.031,49.1794],[39.938,49.0823],[39.9381,49.0563],[39.8053,49.06],[39.7673,49.0402],[39.6925,49.0504],[39.672,49.0404],[39.6851,49.035],[39.6632,49.001],[39.6772,48.9893],[39.7008,49.0002],[39.727,48.9755],[39.7531,48.9862],[39.7781,48.9518],[39.7755,48.9225],[39.8231,48.9043],[39.8272,48.8862],[39.8384,48.9031],[39.8524,48.8905],[39.9244,48.896],[39.9933,48.868],[40.0041,48.9013],[40.0359,48.9158],[40.061,48.9088],[40.0807,48.8702],[39.976,48.7929],[39.8004,48.8423],[39.7684,48.7663],[39.7438,48.7703],[39.7254,48.7509],[39.7385,48.7438],[39.7043,48.7207],[39.723,48.6838],[39.7024,48.6688],[39.7164,48.6551],[39.6605,48.6094],[39.6893,48.5863],[39.7916,48.5926],[39.854,48.5629],[39.8668,48.5078],[39.847,48.5008],[39.8463,48.4738],[39.8984,48.4475],[39.8897,48.4411],[39.9186,48.3978],[39.907,48.3898],[39.924,48.375],[39.9414,48.3869],[39.9324,48.363],[39.9468,48.3541],[39.8457,48.3329],[39.8411,48.3096],[39.8873,48.3091],[39.9163,48.27],[39.9893,48.3168],[40.0206,48.2535],[40.0096,48.2248],[39.9421,48.2287],[39.9368,48.1807],[39.91,48.1797]]]]}},{"type":"Feature","properties":{"region":"Херсонская область","regionCode":"RU-KHE"},"geometry":{"type":"MultiPolygon","coordinates":[[[[33.5918,47.5787],[33.6076,47.5609],[33.59,47.5581],[33.5815,47.5323],[33.5888,47.5031],[33.6361,47.5129],[33.6433,47.4852],[33.9352,47.5168],[33.9553,47.4574],[34.1394,47.4768],[34.2152,47.4545],[34.2444,47.4303],[34.2927,47.2745],[34.3058,47.2682],[34.3301,47.2904],[34.4024,47.2877],[34.4,47.2985],[34.4199,47.3008],[34.4145,47.3231],[34.5131,47.3362],[34.5141,47.3183],[34.4799,47.3145],[34.4883,47.2804],[34.5177,47.2835],[34.5274,47.2677],[34.5302,47.251],[34.4918,47.247],[34.5201,47.105],[34.5524,47.1059],[34.5678,47.0242],[34.5909,47.0269],[34.5994,46.9919],[34.6195,46.9934],[34.6234,46.9727],[34.6833,46.9789],[34.6879,46.9563],[34.7364,46.9611],[34.7523,46.8797],[34.8048,46.8827],[34.8183,46.8287],[34.7578,46.8229],[34.7657,46.7808],[34.7503,46.7805],[34.7351,46.7479],[34.6261,46.7252],[34.634,46.688],[34.7461,46.6834],[34.757,46.6268],[34.7127,46.6196],[34.7226,46.5813],[34.7488,46.5836],[34.7571,46.5513],[34.891,46.5656],[34.8896,46.5059],[34.9477,46.5119],[35.022,46.4794],[35.0536,46.4819],[35.0716,46.2988],[35.1038,46.302],[35.0558,46.2689],[34.8959,46.2394],[34.8337,46.2043],[34.8133,46.1617],[34.6907,46.1841],[34.6021,46.1707],[34.6444,46.0924],[34.5881,46.009],[34.5432,45.9823],[34.5181,45.9976],[34.4794,45.9551],[34.4702,45.9872],[34.4809,46.0008],[34.4172,46.0184],[34.4327,46.0461],[34.468,46.0435],[34.4507,46.0315],[34.4503,46.0294],[34.4549,46.0257],[34.4645,46.029],[34.4636,46.0321],[34.4718,46.0393],[34.4805,46.042],[34.4468,46.0514],[34.4372,46.0876],[34.46,46.0984],[34.4689,46.1253],[34.4856,46.1253],[34.4916,46.1223],[34.481,46.1239],[34.4915,46.086],[34.5048,46.1178],[34.5418,46.1305],[34.5657,46.1046],[34.5534,46.0905],[34.5697,46.0839],[34.5879,46.1118],[34.5908,46.1653],[34.5344,46.1971],[34.5201,46.1828],[34.5295,46.159],[34.5179,46.1601],[34.5369,46.1481],[34.4805,46.1388],[34.3802,46.198],[34.3518,46.1879],[34.3298,46.228],[34.3026,46.1918],[34.3147,46.1681],[34.3303,46.1771],[34.3418,46.1632],[34.3192,46.1077],[34.3129,46.1155],[34.3053,46.1052],[34.2978,46.1039],[34.2961,46.1581],[34.1718,46.2914],[34.1401,46.2582],[34.1824,46.1928],[34.2037,46.1845],[34.2056,46.1639],[34.161,46.14],[34.1507,46.1486],[34.1686,46.1929],[34.1435,46.2141],[34.1249,46.1843],[34.098,46.1747],[34.1366,46.172],[34.1426,46.1384],[34.1658,46.1334],[34.1515,46.114],[34.1211,46.1405],[34.0873,46.1245],[34.0659,46.1593],[34.0416,46.1202],[33.9677,46.2137],[33.8954,46.2199],[33.8788,46.2447],[33.8806,46.2305],[33.8382,46.2227],[33.7761,46.257],[33.7564,46.2396],[33.7264,46.2431],[33.6996,46.2191],[33.6931,46.2294],[33.6839,46.2262],[33.7088,46.213],[33.7221,46.2291],[33.7322,46.2068],[33.7362,46.219],[33.7402,46.2013],[33.7207,46.1988],[33.6824,46.2131],[33.6689,46.248],[33.6639,46.2258],[33.6611,46.2239],[33.6562,46.2251],[33.6438,46.253],[33.6285,46.2403],[33.6436,46.2296],[33.6143,46.226],[33.636,46.1401],[33.6152,46.1346],[33.5836,46.1587],[33.5378,46.1183],[33.5105,46.1231],[33.5149,46.0992],[33.5743,46.0753],[33.4982,46.076],[33.4915,46.0556],[33.5169,46.0324],[33.4992,46.0274],[33.4604,46.051],[33.4158,46.0383],[33.4221,46.0302],[33.3654,46.0761],[33.3758,46.0957],[33.3602,46.0896],[33.3305,46.116],[33.309,46.0757],[33.2845,46.0773],[33.2802,46.0966],[33.3115,46.1046],[33.2835,46.1329],[33.2172,46.1316],[33.215,46.1059],[33.2027,46.1068],[33.2047,46.1351],[33.2264,46.1532],[33.206,46.1739],[33.2254,46.2175],[33.2023,46.1901],[33.187,46.1944],[33.1855,46.1549],[33.1349,46.1244],[33.0194,46.1596],[33.0105,46.152],[33.0307,46.138],[33.0147,46.1219],[33.0272,46.1102],[32.9097,46.1056],[32.8733,46.1238],[32.829,46.1101],[32.7676,46.1225],[32.6016,46.0986],[32.546,46.0806],[32.5425,46.0655],[32.2275,46.1317],[32.2288,46.1696],[32.2465,46.1694],[32.2377,46.1844],[32.263,46.1907],[32.207,46.1904],[32.1934,46.1762],[32.1657,46.197],[32.1788,46.1948],[32.187,46.198],[32.188,46.2017],[32.1267,46.2041],[32.0529,46.2583],[32.0289,46.2473],[31.9957,46.2523],[32.002,46.266],[31.9738,46.2558],[31.9411,46.2905],[31.8933,46.3004],[31.8956,46.3149],[31.8774,46.3055],[31.8961,46.2853],[31.8928,46.288],[31.8741,46.2651],[31.8596,46.2722],[31.8281,46.2742],[31.8152,46.2638],[31.815,46.2768],[31.7916,46.2803],[31.7941,46.2745],[31.7776,46.266],[31.7739,46.2943],[31.7566,46.2965],[31.7835,46.3222],[31.8347,46.334],[31.8978,46.3321],[31.9578,46.341],[32.0051,46.357],[32.0248,46.3848],[32.0407,46.3779],[32.0656,46.3865],[32.0148,46.4515],[31.9695,46.4431],[31.9542,46.4505],[31.9431,46.4513],[31.9595,46.4455],[31.9257,46.4559],[31.9171,46.4552],[31.9538,46.4384],[31.806,46.4787],[31.8577,46.5167],[31.9025,46.5175],[31.9971,46.4888],[32.1228,46.4988],[32.2042,46.4785],[32.3459,46.4628],[32.4363,46.4858],[32.4036,46.4959],[32.3386,46.4838],[32.3382,46.4735],[32.3338,46.4755],[32.327,46.4689],[32.3152,46.4693],[32.321,46.4781],[32.2888,46.4874],[32.3082,46.4894],[32.2864,46.4896],[32.314,46.4944],[32.2759,46.505],[32.2816,46.5083],[32.2963,46.5038],[32.3116,46.5061],[32.2861,46.5099],[32.2997,46.5145],[32.2889,46.5255],[32.3029,46.5326],[32.2856,46.5291],[32.3055,46.5626],[32.2902,46.5772],[32.2438,46.5913],[32.1374,46.5572],[32.104,46.6105],[32.0517,46.6148],[31.9822,46.6565],[32.0298,46.6668],[32.018,46.6773],[32.0864,46.6845],[32.0758,46.7294],[32.0569,46.7454],[32.1712,46.7518],[32.168,46.7645],[32.2198,46.7705],[32.2102,46.805],[32.2506,46.8193],[32.226,46.8457],[32.3471,46.7946],[32.3737,46.7976],[32.3653,46.83],[32.4644,46.8424],[32.471,46.8167],[32.53,46.8226],[32.5346,46.8815],[32.5859,46.8546],[32.6901,46.8628],[32.7017,46.8209],[32.7716,46.8214],[32.9486,46.8587],[32.9212,46.8672],[32.9159,46.8848],[32.8573,46.8761],[32.8349,46.8838],[32.8382,46.896],[32.9798,46.9346],[32.9768,46.9495],[32.9491,46.9464],[32.9333,46.9858],[32.95,47.0032],[33.0236,46.9718],[33.0704,47.0209],[32.9137,47.0872],[32.917,47.1429],[32.9609,47.1895],[33.0062,47.1962],[33.0392,47.1782],[33.0739,47.2223],[33.1306,47.2031],[33.1441,47.2096],[33.1328,47.2329],[33.1824,47.2385],[33.1407,47.2724],[33.1054,47.2792],[33.1031,47.3226],[33.1381,47.3334],[33.1221,47.3908],[33.0404,47.3802],[33.0287,47.4233],[33.0332,47.4416],[33.0532,47.444],[33.0463,47.4678],[33.0701,47.4742],[33.0711,47.4127],[33.1374,47.4203],[33.1243,47.5075],[33.149,47.5147],[33.1444,47.5363],[33.0956,47.5276],[33.0929,47.5793],[33.1716,47.5668],[33.2329,47.5771],[33.2162,47.5328],[33.2827,47.5453],[33.2791,47.5181],[33.3105,47.5007],[33.3137,47.4809],[33.35,47.4935],[33.3238,47.525],[33.4857,47.5455],[33.4749,47.5877],[33.5789,47.5989],[33.5918,47.5787]]],[[[34.8258,46.1397],[34.8617,45.9718],[34.9744,45.7627],[34.9644,45.7588],[34.8955,45.859],[34.8752,45.8567],[34.8479,45.8214],[34.8205,45.8271],[34.8245,45.8095],[34.816,45.8334],[34.8402,45.8754],[34.8373,45.9124],[34.8581,45.9109],[34.837,45.9573],[34.84,45.9593],[34.845,45.9478],[34.8702,45.9331],[34.8428,45.9823],[34.8272,45.9747],[34.8334,46.0146],[34.8221,46.0036],[34.8117,46.0384],[34.7811,46.0536],[34.7591,46.009],[34.7072,46.0508],[34.7087,46.0824],[34.6714,46.0919],[34.6817,46.0912],[34.6712,46.1021],[34.7623,46.106],[34.762,46.0897],[34.7883,46.0728],[34.819,46.1025],[34.8162,46.1292],[34.8028,46.1206],[34.797,46.1368],[34.8176,46.1491],[34.8258,46.1397]]],[[[35.2387,46.2163],[35.1882,46.1517],[35.1435,46.1225],[34.9857,46.0788],[35.0011,46.0909],[34.9898,46.1032],[35.026,46.1046],[35.0152,46.1142],[35.041,46.1231],[35.0281,46.1357],[35.0877,46.1438],[35.0365,46.1438],[35.2122,46.1876],[35.2249,46.222],[35.2686,46.2503],[35.2387,46.2163]]],[[[32.5617,46.0673],[32.7832,46.0348],[32.786,46.0298],[32.8647,46.0612],[32.9001,46.0404],[32.8905,46.0347],[32.9423,46.0468],[33.0753,46.0136],[32.9184,46.0114],[32.7356,46.0347],[32.5483,46.0663],[32.5617,46.0673]]],[[[34.236,46.188],[34.2495,46.1611],[34.2294,46.1618],[34.2424,46.1376],[34.2316,46.1106],[34.2598,46.1097],[34.2596,46.1399],[34.2743,46.1432],[34.2657,46.1011],[34.255,46.1019],[34.2639,46.0936],[34.25,46.0885],[34.2628,46.0845],[34.2742,46.1014],[34.2762,46.0896],[34.2479,46.0758],[34.252,46.0641],[34.2282,46.0643],[34.2418,46.0945],[34.2089,46.1145],[34.1939,46.1481],[34.2238,46.1565],[34.2184,46.1811],[34.236,46.188]]],[[[31.6172,46.2448],[31.6778,46.2496],[31.6409,46.2354],[32.0207,46.1767],[31.8547,46.1948],[31.615,46.2403],[31.5646,46.2646],[31.5231,46.3026],[31.5125,46.3354],[31.5226,46.3658],[31.535,46.3659],[31.5355,46.3052],[31.5511,46.279],[31.6172,46.2448]]],[[[34.1872,46.1267],[34.2028,46.1259],[34.1925,46.1023],[34.2165,46.1096],[34.2088,46.0807],[34.1925,46.0848],[34.2035,46.073],[34.1664,46.0958],[34.1718,46.117],[34.1846,46.1158],[34.1801,46.1395],[34.1872,46.1267]]],[[[34.4679,46.1224],[34.4105,46.0873],[34.4046,46.0612],[34.3952,46.0954],[34.4303,46.1202],[34.4679,46.1224]]],[[[34.7227,45.9961],[34.7649,45.9994],[34.7611,45.9802],[34.7582,45.9753],[34.7591,45.9884],[34.7468,45.9749],[34.7331,45.9833],[34.7316,45.9778],[34.7392,45.971],[34.737,45.9687],[34.6812,46.0124],[34.7227,45.9961]]],[[[32.036,46.1748],[32.0724,46.1699],[32.1971,46.1398],[32.0567,46.1671],[32.0374,46.1717],[32.0308,46.1769],[32.036,46.1748]]],[[[34.7999,46.163],[34.8141,46.1506],[34.805,46.1573],[34.7836,46.1349],[34.7748,46.1394],[34.7892,46.1442],[34.781,46.1521],[34.7946,46.1533],[34.7999,46.163]]],[[[32.309,46.4804],[32.29,46.4707],[32.2775,46.4738],[32.2861,46.4792],[32.2865,46.481],[32.2778,46.4829],[32.2813,46.4871],[32.309,46.4804]]],[[[34.1492,46.1671],[34.1308,46.1847],[34.1364,46.1918],[34.1408,46.1903],[34.1492,46.1671]]],[[[34.4499,45.9878],[34.4556,45.9697],[34.4293,46.0018],[34.4456,45.9869],[34.4423,46.001],[34.4485,46.0051],[34.4499,45.9878]]],[[[32.1503,46.5098],[32.1681,46.4962],[32.192,46.4875],[32.1583,46.4959],[32.1411,46.5104],[32.1503,46.5098]]],[[[34.7912,46.1586],[34.7799,46.1526],[34.7843,46.1471],[34.78,46.1445],[34.7644,46.1485],[34.7912,46.1586]]],[[[32.1112,46.5083],[32.0947,46.5004],[32.0889,46.5047],[32.1163,46.5145],[32.1112,46.5083]]],[[[34.7885,46.1305],[34.7877,46.1232],[34.7725,46.1303],[34.7891,46.1334],[34.7885,46.1305]]],[[[34.7784,45.9125],[34.7634,45.9187],[34.7558,45.9297],[34.7628,45.922],[34.7784,45.9125]]],[[[34.7472,45.9553],[34.7561,45.9481],[34.7554,45.9304],[34.7437,45.9556],[34.7472,45.9553]]],[[[31.969,46.4411],[31.9774,46.4423],[31.9712,46.4397],[31.9593,46.44],[31.9516,46.4443],[31.969,46.4411]]],[[[34.7724,46.1568],[34.767,46.1514],[34.7611,46.152],[34.769,46.1644],[34.7724,46.1568]]],[[[34.8247,45.9864],[34.8226,46.0022],[34.828,46.0059],[34.828,45.9951],[34.8247,45.9864]]],[[[34.3116,46.1081],[34.313,46.104],[34.3109,46.0991],[34.3032,46.1],[34.3116,46.1081]]],[[[31.9114,46.5234],[31.9144,46.5215],[31.8975,46.5203],[31.8993,46.5235],[31.9114,46.5234]]],[[[34.7604,45.9389],[34.7645,45.9261],[34.7684,45.9203],[34.7567,45.9347],[34.7592,45.9456],[34.7604,45.9389]]],[[[34.7602,46.1526],[34.7587,46.1477],[34.7532,46.146],[34.7516,46.153],[34.7602,46.1526]]],[[[31.8913,46.527],[31.898,46.5241],[31.8804,46.531],[31.8881,46.5295],[31.8913,46.527]]],[[[34.8111,46.1474],[34.803,46.1433],[34.7964,46.1432],[34.7982,46.1463],[34.8111,46.1474]]],[[[31.733,46.2788],[31.7347,46.2733],[31.7396,46.2707],[31.7296,46.2726],[31.733,46.2788]]],[[[32.2152,46.1355],[32.224,46.1329],[32.2016,46.1385],[32.2051,46.139],[32.2152,46.1355]]],[[[31.9138,46.3381],[31.9064,46.3379],[31.8881,46.3341],[31.9037,46.3387],[31.9138,46.3381]]],[[[32.2617,46.4933],[32.2681,46.491],[32.2685,46.4898],[32.2557,46.4949],[32.2617,46.4933]]],[[[32.2784,46.4925],[32.272,46.4935],[32.2669,46.4988],[32.2757,46.4962],[32.2784,46.4925]]],[[[32.0328,46.3887],[32.0327,46.3851],[32.0261,46.3862],[32.0356,46.3944],[32.0328,46.3887]]],[[[31.8896,46.3086],[31.8919,46.3044],[31.8815,46.3063],[31.8865,46.31],[31.8896,46.3086]]],[[[34.8422,45.9252],[34.8468,45.9232],[34.8463,45.918],[34.8349,45.934],[34.8349,45.9386],[34.8422,45.9252]]],[[[33.2003,46.0667],[33.1964,46.0665],[33.1946,46.0682],[33.2043,46.0708],[33.2003,46.0667]]],[[[34.8378,45.9145],[34.8369,45.9136],[34.8252,45.9269],[34.8324,45.9241],[34.8378,45.9145]]],[[[32.0885,46.5004],[32.0897,46.4988],[32.0781,46.4997],[32.0905,46.5019],[32.0885,46.5004]]],[[[32.2812,46.4815],[32.286,46.4805],[32.2749,46.4772],[32.2747,46.4823],[32.2812,46.4815]]],[[[34.7655,46.1438],[34.7697,46.1437],[34.7704,46.1429],[34.7652,46.1392],[34.7655,46.1438]]],[[[31.9951,46.5039],[31.9967,46.4997],[31.9925,46.4967],[31.9906,46.5019],[31.9951,46.5039]]],[[[34.8264,45.9442],[34.8329,45.9433],[34.8325,45.9375],[34.8236,45.9459],[34.8264,45.9442]]],[[[34.832,45.9611],[34.828,45.9598],[34.8254,45.9615],[34.8294,45.9646],[34.832,45.9611]]],[[[34.4777,45.9514],[34.4746,45.9466],[34.4714,45.9475],[34.4779,45.9543],[34.4777,45.9514]]],[[[31.9033,46.5265],[31.9088,46.5249],[31.9003,46.525],[31.8977,46.5284],[31.9033,46.5265]]],[[[32.2777,46.4844],[32.2703,46.4865],[32.2703,46.4872],[32.2789,46.4873],[32.2777,46.4844]]],[[[34.8174,45.9683],[34.8206,45.9656],[34.8198,45.9724],[34.8198,45.9712],[34.8174,45.9683]]],[[[34.7913,46.1305],[34.7902,46.1363],[34.7956,46.1423],[34.7958,46.1402],[34.7913,46.1305]]],[[[34.7872,45.9146],[34.7852,45.911],[34.7826,45.9105],[34.7848,45.9186],[34.7872,45.9146]]],[[[32.2906,46.5141],[32.2847,46.5164],[32.2852,46.5201],[32.2892,46.5178],[32.2906,46.5141]]],[[[31.7735,46.316],[31.7708,46.314],[31.7658,46.3134],[31.7716,46.3179],[31.7735,46.316]]],[[[31.9707,46.1974],[31.9698,46.2009],[31.9668,46.2029],[31.9719,46.2021],[31.9707,46.1974]]],[[[34.8392,45.9346],[34.8423,45.9309],[34.8438,45.9262],[34.8368,45.9354],[34.8392,45.9346]]],[[[34.2621,46.158],[34.2584,46.1551],[34.2551,46.1581],[34.257,46.1587],[34.2621,46.158]]],[[[34.2695,46.1508],[34.2677,46.1517],[34.2667,46.1567],[34.2698,46.1569],[34.2695,46.1508]]],[[[34.7995,46.1431],[34.8037,46.1422],[34.7971,46.1394],[34.7973,46.1428],[34.7995,46.1431]]],[[[34.2658,46.16],[34.2636,46.1589],[34.2587,46.1613],[34.2614,46.1617],[34.2658,46.16]]],[[[31.7206,46.24],[31.7186,46.2398],[31.7166,46.2482],[31.7199,46.2429],[31.7206,46.24]]],[[[34.8222,45.9784],[34.8192,45.9798],[34.8205,45.9854],[34.8205,45.9799],[34.8222,45.9784]]],[[[32.0319,46.2186],[32.0293,46.2192],[32.0281,46.2203],[32.0349,46.2195],[32.0319,46.2186]]],[[[34.3277,46.1777],[34.3234,46.1818],[34.326,46.1845],[34.3261,46.1797],[34.3277,46.1777]]],[[[31.8334,46.2653],[31.8299,46.2654],[31.8273,46.2693],[31.8289,46.2701],[31.8334,46.2653]]],[[[33.2043,46.0735],[33.2018,46.0731],[33.2008,46.0772],[33.2029,46.0764],[33.2043,46.0735]]],[[[34.7764,46.1326],[34.7725,46.132],[34.7718,46.1329],[34.7781,46.1346],[34.7764,46.1326]]],[[[34.2575,46.1478],[34.2549,46.1482],[34.2546,46.1514],[34.2565,46.1513],[34.2575,46.1478]]],[[[32.0412,46.3963],[32.0394,46.3972],[32.0466,46.4007],[32.0457,46.3995],[32.0412,46.3963]]],[[[34.8468,45.9273],[34.8486,45.9259],[34.8468,45.9261],[34.8418,45.9329],[34.8468,45.9273]]],[[[33.0388,46.1114],[33.0362,46.1126],[33.0428,46.1134],[33.0425,46.1125],[33.0388,46.1114]]],[[[33.3228,46.0746],[33.3191,46.0751],[33.3265,46.076],[33.3252,46.0752],[33.3228,46.0746]]],[[[34.7435,45.9589],[34.7426,45.9582],[34.7392,45.9641],[34.7444,45.9615],[34.7435,45.9589]]],[[[34.2547,46.1462],[34.2512,46.1471],[34.2507,46.1488],[34.2529,46.1495],[34.2547,46.1462]]],[[[31.8829,46.5143],[31.8788,46.5122],[31.877,46.5137],[31.8812,46.5147],[31.8829,46.5143]]],[[[32.2647,46.4954],[32.2609,46.497],[32.2605,46.4986],[32.2638,46.4976],[32.2647,46.4954]]],[[[34.2532,46.1649],[34.2499,46.1658],[34.2499,46.1672],[34.2525,46.1675],[34.2532,46.1649]]],[[[33.3149,46.0756],[33.3108,46.0754],[33.3101,46.0766],[33.3123,46.0778],[33.3149,46.0756]]],[[[34.8509,45.9463],[34.8467,45.9478],[34.8461,45.9515],[34.8476,45.9488],[34.8509,45.9463]]],[[[33.1944,46.0834],[33.1927,46.0832],[33.1916,46.0863],[33.194,46.086],[33.1944,46.0834]]],[[[31.8496,46.2686],[31.8522,46.2683],[31.8457,46.2681],[31.847,46.269],[31.8496,46.2686]]],[[[34.1174,46.1302],[34.1158,46.132],[34.1193,46.1331],[34.1185,46.1308],[34.1174,46.1302]]],[[[31.7608,46.3081],[31.76,46.3093],[31.7646,46.3127],[31.765,46.3119],[31.7608,46.3081]]],[[[31.9272,46.338],[31.9244,46.3379],[31.9339,46.3394],[31.9316,46.3384],[31.9272,46.338]]],[[[31.9218,46.3367],[31.9162,46.3358],[31.915,46.3365],[31.9179,46.3376],[31.9218,46.3367]]],[[[34.8322,45.971],[34.8277,45.9714],[34.8266,45.9732],[34.8288,45.9729],[34.8322,45.971]]],[[[34.0461,46.1167],[34.0428,46.1174],[34.0419,46.1194],[34.0434,46.1193],[34.0461,46.1167]]],[[[33.4313,46.031],[33.43,46.0305],[33.428,46.0329],[33.4295,46.0342],[33.4313,46.031]]],[[[34.7572,45.9511],[34.7561,45.9508],[34.7518,45.9545],[34.7542,45.9546],[34.7572,45.9511]]],[[[34.3003,46.0999],[34.2977,46.1028],[34.2981,46.1033],[34.3009,46.1027],[34.3003,46.0999]]],[[[34.826,45.9529],[34.8234,45.9514],[34.8236,45.9552],[34.8245,45.9554],[34.826,45.9529]]],[[[34.7547,46.1539],[34.7538,46.1536],[34.7531,46.1573],[34.7558,46.1553],[34.7547,46.1539]]],[[[34.428,46.0048],[34.4299,46.0047],[34.4306,46.0038],[34.4271,46.0027],[34.428,46.0048]]],[[[34.8479,45.9587],[34.8483,45.9571],[34.8451,45.9619],[34.846,45.9631],[34.8479,45.9587]]],[[[34.2514,46.1579],[34.2496,46.1583],[34.2542,46.1596],[34.2542,46.1587],[34.2514,46.1579]]],[[[31.7573,46.303],[31.7566,46.3042],[31.7589,46.3071],[31.7594,46.3057],[31.7573,46.303]]],[[[34.8282,45.9491],[34.8242,45.9488],[34.8238,45.9502],[34.8273,45.9502],[34.8282,45.9491]]],[[[34.8271,45.8035],[34.8262,45.8035],[34.8254,45.8081],[34.8273,45.8049],[34.8271,45.8035]]],[[[34.8434,45.9344],[34.8403,45.9352],[34.8388,45.9374],[34.8399,45.9374],[34.8434,45.9344]]],[[[34.4627,46.0316],[34.4601,46.0319],[34.4592,46.0334],[34.4605,46.0342],[34.4627,46.0316]]],[[[34.7798,46.1419],[34.7783,46.1422],[34.7835,46.1442],[34.7824,46.1431],[34.7798,46.1419]]],[[[34.8003,46.1499],[34.8023,46.1495],[34.8023,46.1487],[34.7988,46.1484],[34.8003,46.1499]]],[[[34.8557,45.9513],[34.8544,45.9506],[34.8551,45.9551],[34.8557,45.9547],[34.8557,45.9513]]],[[[34.3063,46.1078],[34.3052,46.1076],[34.3038,46.1112],[34.3063,46.1091],[34.3063,46.1078]]],[[[32.0266,46.1791],[32.0233,46.1775],[32.022,46.1785],[32.026,46.1796],[32.0266,46.1791]]],[[[31.8453,46.2692],[31.8459,46.2715],[31.8479,46.2703],[31.8477,46.2698],[31.8453,46.2692]]],[[[34.2512,46.1533],[34.2495,46.1535],[34.253,46.1547],[34.2526,46.1536],[34.2512,46.1533]]],[[[34.1188,46.1354],[34.1184,46.1368],[34.121,46.1374],[34.1201,46.1359],[34.1188,46.1354]]],[[[34.7595,46.1568],[34.7577,46.1578],[34.7572,46.159],[34.759,46.1591],[34.7595,46.1568]]],[[[34.1197,46.1276],[34.1179,46.1276],[34.1172,46.1288],[34.119,46.1293],[34.1197,46.1276]]],[[[34.26,46.1534],[34.2593,46.1545],[34.2626,46.1545],[34.2622,46.1539],[34.26,46.1534]]],[[[34.2534,46.1567],[34.2543,46.1555],[34.2507,46.1561],[34.2529,46.1573],[34.2534,46.1567]]],[[[33.21,46.1425],[33.2082,46.1427],[33.2089,46.1445],[33.2106,46.1442],[33.21,46.1425]]],[[[34.7738,46.1346],[34.7724,46.135],[34.7762,46.1356],[34.7757,46.1352],[34.7738,46.1346]]],[[[32.046,46.2169],[32.0447,46.217],[32.0432,46.218],[32.0467,46.2178],[32.046,46.2169]]],[[[33.1966,46.174],[33.1951,46.174],[33.1949,46.1764],[33.196,46.1764],[33.1966,46.174]]],[[[34.2482,46.1531],[34.2464,46.1536],[34.2462,46.1545],[34.2484,46.1545],[34.2482,46.1531]]],[[[32.2021,46.1409],[32.2001,46.141],[32.1992,46.1424],[32.2017,46.1419],[32.2021,46.1409]]],[[[34.257,46.1386],[34.2564,46.1392],[34.2587,46.1408],[34.2586,46.1388],[34.257,46.1386]]],[[[34.7598,46.0059],[34.7591,46.0073],[34.762,46.0072],[34.762,46.0066],[34.7598,46.0059]]],[[[33.4361,46.0284],[33.4345,46.0273],[33.4332,46.0293],[33.4341,46.0303],[33.4361,46.0284]]],[[[34.2576,46.1325],[34.2569,46.1325],[34.2554,46.1348],[34.2565,46.1351],[34.2576,46.1325]]],[[[33.2183,46.1073],[33.2163,46.107],[33.2161,46.1077],[33.2183,46.1088],[33.2183,46.1073]]],[[[34.6739,46.097],[34.6726,46.0973],[34.6735,46.0992],[34.6746,46.0983],[34.6739,46.097]]],[[[34.2566,46.1299],[34.2554,46.1308],[34.2559,46.1321],[34.2576,46.1313],[34.2566,46.1299]]],[[[34.4673,46.0322],[34.4657,46.0331],[34.4659,46.0341],[34.4679,46.0333],[34.4673,46.0322]]],[[[32.0807,46.2441],[32.0794,46.2444],[32.0779,46.2458],[32.08,46.2456],[32.0807,46.2441]]],[[[34.3388,46.0614],[34.3374,46.0616],[34.3379,46.0629],[34.3401,46.0624],[34.3388,46.0614]]],[[[33.0342,46.1126],[33.0323,46.1125],[33.0312,46.1136],[33.0334,46.1136],[33.0342,46.1126]]],[[[34.8184,45.9615],[34.8171,45.9615],[34.82,45.9633],[34.8191,45.9625],[34.8184,45.9615]]],[[[34.7894,46.1272],[34.7885,46.1273],[34.7887,46.1293],[34.79,46.1286],[34.7894,46.1272]]],[[[32.0418,46.3792],[32.0408,46.3796],[32.0438,46.3808],[32.0434,46.3798],[32.0418,46.3792]]],[[[34.2689,46.1485],[34.2684,46.1496],[34.2704,46.1497],[34.2704,46.1491],[34.2689,46.1485]]],[[[32.2176,46.1364],[32.2158,46.1368],[32.2153,46.1376],[32.218,46.1372],[32.2176,46.1364]]],[[[31.747,46.2164],[31.7452,46.2168],[31.745,46.2174],[31.7464,46.2179],[31.747,46.2164]]],[[[34.471,46.0426],[34.4691,46.0429],[34.4686,46.0435],[34.4712,46.0434],[34.471,46.0426]]],[[[32.0552,46.3859],[32.0531,46.3861],[32.053,46.3868],[32.0559,46.3865],[32.0552,46.3859]]],[[[34.2589,46.1434],[34.2569,46.1436],[34.2569,46.1443],[34.2589,46.1444],[34.2589,46.1434]]],[[[34.7542,45.9523],[34.7533,45.9517],[34.7513,45.9536],[34.7522,45.9534],[34.7542,45.9523]]],[[[34.2567,46.1362],[34.2566,46.1379],[34.2584,46.137],[34.2575,46.1365],[34.2567,46.1362]]],[[[34.3054,46.0979],[34.3043,46.0979],[34.3036,46.0994],[34.3052,46.0994],[34.3054,46.0979]]],[[[32.0589,46.3871],[32.0565,46.3871],[32.0564,46.3874],[32.0581,46.3882],[32.0589,46.3871]]],[[[32.0402,46.2181],[32.039,46.2182],[32.0382,46.2191],[32.0397,46.2194],[32.0402,46.2181]]],[[[34.2242,46.0647],[34.2236,46.0647],[34.2224,46.0665],[34.2244,46.0657],[34.2242,46.0647]]],[[[34.2569,46.1258],[34.256,46.127],[34.2586,46.1269],[34.2569,46.1263],[34.2569,46.1258]]],[[[34.7548,46.0041],[34.7537,46.0039],[34.7532,46.005],[34.7548,46.0054],[34.7548,46.0041]]],[[[32.0584,46.3894],[32.0579,46.3902],[32.0597,46.3909],[32.0599,46.3902],[32.0584,46.3894]]],[[[34.4597,46.0284],[34.4584,46.0284],[34.4584,46.0296],[34.4599,46.0296],[34.4597,46.0284]]],[[[34.4558,46.0265],[34.4549,46.027],[34.4549,46.0282],[34.4562,46.0279],[34.4558,46.0265]]],[[[34.2606,46.1451],[34.2584,46.1455],[34.2584,46.1461],[34.2593,46.1466],[34.2606,46.1451]]],[[[32.7893,46.0326],[32.7885,46.0323],[32.7871,46.034],[32.7896,46.0333],[32.7893,46.0326]]],[[[31.8913,46.2797],[31.8908,46.2808],[31.8925,46.2806],[31.8926,46.2802],[31.8913,46.2797]]],[[[34.3076,46.0971],[34.3061,46.097],[34.3059,46.0976],[34.3069,46.0982],[34.3076,46.0971]]],[[[32.1996,46.138],[32.1986,46.1383],[32.1983,46.1387],[32.2,46.1392],[32.1996,46.138]]],[[[34.2558,46.1445],[34.2554,46.1456],[34.2569,46.1455],[34.2569,46.145],[34.2558,46.1445]]],[[[34.2587,46.1418],[34.2574,46.142],[34.2598,46.1426],[34.2598,46.142],[34.2587,46.1418]]],[[[34.4525,46.03],[34.4511,46.0303],[34.4511,46.0309],[34.4529,46.0309],[34.4525,46.03]]],[[[33.1903,46.0892],[33.1889,46.0895],[33.1889,46.0905],[33.1905,46.0899],[33.1903,46.0892]]],[[[34.2556,46.1529],[34.255,46.1535],[34.2569,46.1541],[34.2563,46.1532],[34.2556,46.1529]]],[[[34.264,46.1516],[34.2627,46.1513],[34.262,46.1519],[34.2631,46.1525],[34.264,46.1516]]],[[[34.4737,46.0408],[34.4722,46.0408],[34.4722,46.0413],[34.4739,46.0416],[34.4737,46.0408]]],[[[32.0475,46.2546],[32.0471,46.2552],[32.0488,46.2557],[32.0486,46.2549],[32.0475,46.2546]]],[[[32.7104,46.0423],[32.7092,46.0424],[32.7089,46.0431],[32.7102,46.043],[32.7104,46.0423]]],[[[31.8268,46.2642],[31.8261,46.2641],[31.8257,46.2645],[31.8272,46.2652],[31.8268,46.2642]]],[[[34.2549,46.1257],[34.254,46.1257],[34.2534,46.1262],[34.2547,46.1269],[34.2549,46.1257]]],[[[34.268,46.1477],[34.2676,46.1474],[34.2665,46.148],[34.2678,46.1485],[34.268,46.1477]]],[[[32.6208,46.0615],[32.6195,46.0614],[32.6191,46.0617],[32.6212,46.0621],[32.6208,46.0615]]],[[[34.3247,46.1851],[34.3236,46.1851],[34.3232,46.1857],[34.3247,46.1856],[34.3247,46.1851]]],[[[34.2667,46.1488],[34.2658,46.1486],[34.2649,46.1489],[34.2667,46.1497],[34.2667,46.1488]]]]}}]}
